QIANFAN-25              
1 61558U 24185G   25215.61397273  .00000294  00000+0  17162-3 0  9992
2 61558  88.9783  93.0502 0007808  15.2988 344.8429 14.05753263 51089
QIANFAN-26              
1 61559U 24185H   25215.58624119  .00000085  00000+0  72097-4 0  9998
2 61559  88.9797  93.9240 0007698  56.4934 303.6966 13.77720640 50616
QIANFAN-27              
1 61560U 24185J   25215.56999854  .00000374  00000+0  14722-3 0  9990
2 61560  88.9787  92.3413 0008909  15.9454 344.2019 14.27123797 51454
QIANFAN-28              
1 61561U 24185K   25215.88971714  .00000616  00000+0  24417-3 0  9992
2 61561  88.9804  92.2973 0007953  17.4744 342.6723 14.27684670 51504
QIANFAN-29              
1 61562U 24185L   25215.86725872  .00000138  00000+0  19483-3 0  9999
2 61562  88.9793  94.8493 0012159  71.3557 288.8913 13.50955882 50122
QIANFAN-30              
1 61563U 24185M   25215.89121740  .00000121  00000+0  17154-3 0  9992
2 61563  88.9797  94.3240 0009503  59.6125 300.5963 13.49927659 50419
QIANFAN-31              
1 61564U 24185N   25215.59583408  .00000098  00000+0  11834-3 0  9995
2 61564  88.9780  94.3641 0009182  58.8371 301.3683 13.57904930 50362
QIANFAN-32              
1 61565U 24185P   25215.63600517  .00000054  00000+0  65070-4 0  9996
2 61565  88.9841  94.4447 0011529  80.6522 279.5932 13.50683394 50347
